[
    {
        "Altitude(m)": 622200.1037819767,
        "Argument of Periapsis(deg)": 0.0,
        "Eccentricity": 0.0,
        "Inclination(deg)": 60.0,
        "Latitude(deg)": -52.16252879125164,
        "Longitude(deg)": 172.36062773901415,
        "Mean Anomaly(deg)": -65.45449999999998,
        "RAAN(deg)": 320.0,
        "Satellite Name": "Test1 1426",
        "Satellite Number": 1426,
        "Semi-Major Axis(m)": 6980739.136638005,
        "Time(s)": 0
    },
    {
        "Altitude(m)": 622058.2719955657,
        "Argument of Periapsis(deg)": 0.00010418945913296404,
        "Eccentricity": 0.0,
        "Inclination(deg)": 60.0,
        "Latitude(deg)": -51.79927975003305,
        "Longitude(deg)": 173.12868709370937,
        "Mean Anomaly(deg)": -64.83439385453813,
        "RAAN(deg)": 319.9995799508602,
        "Satellite Name": "Test1 1426",
        "Satellite Number": 1426,
        "Semi-Major Axis(m)": 6980739.136638005,
        "Time(s)": 10
    }
]